Unnamed: 0,NORAD_CAT_ID,OBJECT_NAME,EPOCH,MEAN_MOTION,ECCENTRICITY,INCLINATION,RA_OF_ASC_NODE,ARG_OF_PERICENTER,MEAN_ANOMALY,BSTAR,MEAN_MOTION_DOT,MEAN_MOTION_DDOT,TLE_LINE1,TLE_LINE2,SEMIMAJOR_AXIS,PERIOD,APOGEE,PERIGEE,alltitude
1233625,48481,STARLINK-2706,2021-07-10 18:30:17.151840,15.06388052,0.0001258,53.0501,286.3294,75.4248,284.688,-4.7731e-05,-9.92e-06,0,1 48481U 21040BF  21191.77103185 -.00000992  00000-0 -47731-4 0  9996,2 48481  53.0501 286.3294 0001258  75.4248 284.6880 15.06388052 10950,6925.385,95.593,548.121,546.379,547.9072146402365
1233626,48481,STARLINK-2706,2021-07-10 18:30:17.151840,15.06388052,0.0001258,53.0501,286.3294,75.4248,284.688,-4.7731e-05,-9.92e-06,0,1 48481U 21040BF  21191.77103185 -.00000992  00000-0 -47731-4 0  9996,2 48481  53.0501 286.3294 0001258  75.4248 284.6880 15.06388052  9677,6925.385,95.593,548.121,546.379,547.9072146402365
1232031,48481,STARLINK-2706,2021-07-10 08:57:02.272608,15.06395162,0.0001234,53.0502,288.1168,75.1551,284.9575,1.6397e-05,-3.7e-07,0,1 48481U 21040BF  21191.37294297 -.00000037  00000-0  16397-4 0  9990,2 48481  53.0502 288.1168 0001234  75.1551 284.9575 15.06395162  9614,6925.363,95.592,548.083,546.374,547.8866513004192
1228992,48481,STARLINK-2706,2021-07-09 18:37:10.667424,15.06397448,0.0001241,53.0503,290.7976,74.6245,285.4881,8.0597e-05,9.19e-06,0,1 48481U 21040BF  21190.77581791  .00000919  00000-0  80597-4 0  9992,2 48481  53.0503 290.7976 0001241  74.6245 285.4881 15.06397448  9528,6925.356,95.592,548.081,546.362,547.8736818510715
1228991,48481,STARLINK-2706,2021-07-09 18:37:10.667424,15.06397448,0.0001241,53.0503,290.7976,74.6245,285.4881,8.0597e-05,9.19e-06,0,1 48481U 21040BF  21190.77581791  .00000919  00000-0  80597-4 0  9992,2 48481  53.0503 290.7976 0001241  74.6245 285.4881 15.06397448 10801,6925.356,95.592,548.081,546.362,547.8736818510715
1227605,48481,STARLINK-2706,2021-07-09 10:39:28.986336,15.06394213,0.0001248,53.0503,292.287,75.7235,284.3892,7.802e-05,8.81e-06,0,1 48481U 21040BF  21190.44408549  .00000881  00000-0  78020-4 0  9991,2 48481  53.0503 292.2870 0001248  75.7235 284.3892 15.06394213  9477,6925.366,95.593,548.096,546.367,547.9007191231865
1224518,48481,STARLINK-2706,2021-07-08 17:08:32.935776,15.06391057,0.0001274,53.0504,295.5637,76.0548,284.0582,8.694e-05,1.013e-05,0,1 48481U 21040BF  21189.71427009  .00001013  00000-0  86940-4 0  9999,2 48481  53.0504 295.5637 0001274  76.0548 284.0582 15.06391057  9369,6925.376,95.593,548.123,546.359,547.910512910533
1224517,48481,STARLINK-2706,2021-07-08 17:08:32.935776,15.06391057,0.0001274,53.0504,295.5637,76.0548,284.0582,8.694e-05,1.013e-05,0,1 48481U 21040BF  21189.71427009  .00001013  00000-0  86940-4 0  9999,2 48481  53.0504 295.5637 0001274  76.0548 284.0582 15.06391057 10642,6925.376,95.593,548.123,546.359,547.910512910533
1223020,48481,STARLINK-2706,2021-07-08 10:46:25.605408,15.06285497,6.31e-05,53.0504,296.7553,124.1513,235.9536,0.0015255,0.00022444,0,1 48481U 21040BF  21189.44890747  .00022444  00000-0  15255-2 0  9992,2 48481  53.0504 296.7553 0000631 124.1513 235.9536 15.06285497  9322,6925.7,95.599,548.002,547.128,548.6900905800932
1223018,48481,STARLINK-2706,2021-07-08 10:46:25.605408,15.06285497,6.31e-05,53.0504,296.7553,124.1513,235.9536,0.0015255,0.00022444,0,1 48481U 21040BF  21189.44890747  .00022444  00000-0  15255-2 0  9992,2 48481  53.0504 296.7553 0000631 124.1513 235.9536 15.06285497 10605,6925.7,95.599,548.002,547.128,548.6900905800932
1219548,48481,STARLINK-2706,2021-07-07 18:50:59.844768,15.06389244,0.0001206,53.0505,299.7341,73.4711,286.641,5.3611e-05,5.17e-06,0,1 48481U 21040BF  21188.78541487  .00000517  00000-0  53611-4 0  9999,2 48481  53.0505 299.7341 0001206  73.4711 286.6410 15.06389244  9224,6925.382,95.593,548.082,546.411,547.8904647784517
1219546,48481,STARLINK-2706,2021-07-07 18:50:59.844768,15.06389244,0.0001206,53.0505,299.7341,73.4711,286.641,5.3611e-05,5.17e-06,0,1 48481U 21040BF  21188.78541487  .00000517  00000-0  53611-4 0  9999,2 48481  53.0505 299.7341 0001206  73.4711 286.6410 15.06389244 10507,6925.382,95.593,548.082,546.411,547.8904647784517
1218077,48481,STARLINK-2706,2021-07-07 06:00:00.999648,15.06369412,0.0001311,53.0494,302.1369,81.2092,253.8014,0.002781,0.00041351,0,1 48481U 21040BF  21188.25001157  .00041351  00000-0  27810-2 0  9997,2 48481  53.0494 302.1369 0001311  81.2092 253.8014 15.06369412 10421,6925.442,95.594,548.215,546.399,553.0897128949888
1217140,48481,STARLINK-2706,2021-07-06 22:00:01.999584,15.06398988,0.0001322,53.049,303.6349,71.0584,255.341,-0.0017272,-0.00025914,0,1 48481U 21040BF  21187.91668981 -.00025914  00000-0 -17272-2 0  9993,2 48481  53.0490 303.6349 0001322  71.0584 255.3410 15.06398988  3627,6925.352,95.592,548.132,546.301,555.2532151734348
1215689,48481,STARLINK-2706,2021-07-06 14:00:01.999872,15.06387081,0.0001385,53.049,305.1317,74.3549,243.3904,-0.0011435,-0.00017267,0,1 48481U 21040BF  21187.58335648 -.00017267  00000-0 -11435-2 0  9994,2 48481  53.0490 305.1317 0001385  74.3549 243.3904 15.06387081 10327,6925.388,95.593,548.212,546.294,557.8979074075403
1213392,48481,STARLINK-2706,2021-07-05 22:00:01.999584,15.06419978,0.0001237,53.0486,308.1248,71.2027,229.1862,-0.0025427,-0.00037974,0,1 48481U 21040BF  21186.91668981 -.00037974  00000-0 -25427-2 0  9992,2 48481  53.0486 308.1248 0001237  71.2027 229.1862 15.06419978  3611,6925.287,95.591,548.009,546.296,562.4476096760758
1210979,48481,STARLINK-2706,2021-07-05 14:00:01.999872,15.06407758,0.0001259,53.0488,309.6215,75.1105,216.6033,-0.0013072,-0.00019703,0,1 48481U 21040BF  21186.58335648 -.00019703  00000-0 -13072-2 0  9999,2 48481  53.0488 309.6215 0001259  75.1105 216.6033 15.06407758 10170,6925.325,95.592,548.062,546.318,564.3959687730166
1208745,48481,STARLINK-2706,2021-07-04 22:00:00.999936,15.0640574,0.0001225,53.0486,312.6148,71.4524,202.8364,-0.00094791,-0.00014374,0,1 48481U 21040BF  21185.91667824 -.00014374  00000-0 -94791-3 0  9996,2 48481  53.0486 312.6148 0001225  71.4524 202.8364 15.06405740  3618,6925.331,95.592,548.044,546.348,566.3989499019098
1207657,48481,STARLINK-2706,2021-07-04 20:00:01.224000,15.06378846,0.0001252,53.0488,312.9894,69.967,112.1616,0.0025476,0.00037848,0,1 48481U 21040BF  21185.83334491  .00037848  00000-0  25476-2 0  9990,2 48481  53.0488 312.9894 0001252  69.9670 112.1616 15.06378846 10061,6925.413,95.593,548.145,546.411,548.7336252041995
1206496,48481,STARLINK-2706,2021-07-04 14:00:01.224000,15.06404743,0.0001259,53.049,314.1113,76.0069,189.6091,-0.0014839,-0.00022318,0,1 48481U 21040BF  21185.58334491 -.00022318  00000-0 -14839-2 0  9991,2 48481  53.0490 314.1113 0001259  76.0069 189.6091 15.06404743  3626,6925.334,95.592,548.071,546.327,566.4733335435344
1204713,48481,STARLINK-2706,2021-07-04 06:00:00.999648,15.06373385,0.00012,53.049,315.6064,81.9696,174.9794,0.002742,0.00040768,0,1 48481U 21040BF  21185.25001157  .00040768  00000-0  27420-2 0  9992,2 48481  53.0490 315.6064 0001200  81.9696 174.9794 15.06373385  9972,6925.43,95.594,548.126,546.464,565.8720425425394
1203725,48481,STARLINK-2706,2021-07-03 22:00:00.999936,15.0639662,0.0001268,53.049,317.1046,70.1759,178.0906,-0.00030657,-4.844e-05,0,1 48481U 21040BF  21184.91667824 -.00004844  00000-0 -30657-3 0  9997,2 48481  53.0490 317.1046 0001268  70.1759 178.0906 15.06396620  3626,6925.359,95.592,548.102,546.346,564.580038386075
1201745,48481,STARLINK-2706,2021-07-03 14:00:01.999872,15.06402137,0.000129,53.0495,318.601,75.0783,164.5818,-0.0016085,-0.0002416,0,1 48481U 21040BF  21184.58335648 -.00024160  00000-0 -16085-2 0  9997,2 48481  53.0495 318.6010 0001290  75.0783 164.5818 15.06402137  3627,6925.342,95.592,548.1,546.314,562.7838369145721
1199803,48481,STARLINK-2706,2021-07-03 04:00:00.999936,15.06376967,0.0001219,53.0496,320.4706,77.8238,60.9433,0.0010804,0.00015838,0,1 48481U 21040BF  21184.16667824  .00015838  00000-0  10804-2 0  9998,2 48481  53.0496 320.4706 0001219  77.8238  60.9433 15.06376967  9817,6925.419,95.594,548.128,546.44,548.8787956616022
1198986,48481,STARLINK-2706,2021-07-02 22:00:00.999936,15.063845,0.0001332,53.0494,321.5943,68.1856,154.0767,0.00046469,6.644e-05,0,1 48481U 21040BF  21183.91667824  .00006644  00000-0  46469-3 0  9992,2 48481  53.0494 321.5943 0001332  68.1856 154.0767 15.06384500  3591,6925.396,95.593,548.184,546.339,558.2694495966796
1196037,48481,STARLINK-2706,2021-07-02 12:00:02.160000,15.06438116,0.0001393,53.05,323.464,77.8665,43.595,-0.0046124,-0.00068397,0,1 48481U 21040BF  21183.50002315 -.00068397  00000-0 -46124-2 0  9997,2 48481  53.0500 323.4640 0001393  77.8665  43.5950 15.06438116  3607,6925.232,95.59,548.061,546.132,550.6523884835075
1195973,48481,STARLINK-2706,2021-07-02 12:00:02.160000,15.06438116,0.0001393,53.05,323.464,77.8665,43.595,-0.0046124,-0.00068397,0,1 48481U 21040BF  21183.50002315 -.00068397  00000-0 -46124-2 0  9997,2 48481  53.0500 323.4640 0001393  77.8665  43.5950 15.06438116  9715,6925.232,95.59,548.061,546.132,550.6523884835075
1193814,48481,STARLINK-2706,2021-07-01 22:00:00.999936,15.06399067,0.0001508,53.0496,326.0842,68.3248,127.8758,0.0013869,0.00020436,0,1 48481U 21040BF  21182.91667824  .00020436  00000-0  13869-2 0  9993,2 48481  53.0496 326.0842 0001508  68.3248 127.8758 15.06399067  3607,6925.351,95.592,548.261,546.172,551.3201463945114
1191979,48481,STARLINK-2706,2021-07-01 14:00:01.224000,15.06415216,0.0001502,53.0499,327.5801,74.8082,112.7026,-0.0017346,-0.00026035,0,1 48481U 21040BF  21182.58334491 -.00026035  00000-0 -17346-2 0  9994,2 48481  53.0499 327.5801 0001502  74.8082 112.7026 15.06415216  3632,6925.302,95.591,548.207,546.127,549.4439345819559
1191085,48481,STARLINK-2706,2021-07-01 12:00:00.999648,15.06416016,0.0001486,53.0499,327.9537,77.5777,17.7593,-0.0013193,-0.00019887,0,1 48481U 21040BF  21182.50001157 -.00019887  00000-0 -13193-2 0  9999,2 48481  53.0499 327.9537 0001486  77.5777  17.7593 15.06416016  9564,6925.299,95.591,548.194,546.135,552.6587310172887
